CCSDS_OMM_VERS = 2.0
CREATION_DATE  = 
ORIGINATOR     = 

OBJECT_NAME    = SL-3 R/B
OBJECT_ID      = 1982-079B
CENTER_NAME    = EARTH
REF_FRAME      = TEME
TIME_SYSTEM    = UTC
MEAN_ELEMENT_THEORY = SGP/SGP4

EPOCH          = 2026-03-29T05:17:57.699744
MEAN_MOTION    = 15.25059851
ECCENTRICITY   = .0025471
INCLINATION    = 81.1486
RA_OF_ASC_NODE = 170.0162
ARG_OF_PERICENTER = 100.5874
MEAN_ANOMALY   = 259.8230

EPHEMERIS_TYPE = 0
CLASSIFICATION_TYPE = U
NORAD_CAT_ID   = 13403
ELEMENT_SET_NO = 999
REV_AT_EPOCH   = 38067
BSTAR          = .30501E-3
MEAN_MOTION_DOT = .7721E-4
MEAN_MOTION_DDOT = 0

CCSDS_OMM_VERS = 2.0
CREATION_DATE  = 
ORIGINATOR     = 

OBJECT_NAME    = SL-14 R/B
OBJECT_ID      = 1982-092B
CENTER_NAME    = EARTH
REF_FRAME      = TEME
TIME_SYSTEM    = UTC
MEAN_ELEMENT_THEORY = SGP/SGP4

EPOCH          = 2026-03-29T03:53:34.733184
MEAN_MOTION    = 14.86683533
ECCENTRICITY   = .0019058
INCLINATION    = 82.5658
RA_OF_ASC_NODE = 123.1831
ARG_OF_PERICENTER = 233.9484
MEAN_ANOMALY   = 186.9651

EPHEMERIS_TYPE = 0
CLASSIFICATION_TYPE = U
NORAD_CAT_ID   = 13553
ELEMENT_SET_NO = 999
REV_AT_EPOCH   = 33182
BSTAR          = .48318E-4
MEAN_MOTION_DOT = .455E-5
MEAN_MOTION_DDOT = 0

CCSDS_OMM_VERS = 2.0
CREATION_DATE  = 
ORIGINATOR     = 

OBJECT_NAME    = SL-3 R/B
OBJECT_ID      = 1983-010B
CENTER_NAME    = EARTH
REF_FRAME      = TEME
TIME_SYSTEM    = UTC
MEAN_ELEMENT_THEORY = SGP/SGP4

EPOCH          = 2026-03-29T04:03:54.103680
MEAN_MOTION    = 15.47008372
ECCENTRICITY   = .0015968
INCLINATION    = 81.1056
RA_OF_ASC_NODE = 338.3555
ARG_OF_PERICENTER = 344.6221
MEAN_ANOMALY   = 15.4536

EPHEMERIS_TYPE = 0
CLASSIFICATION_TYPE = U
NORAD_CAT_ID   = 13819
ELEMENT_SET_NO = 999
REV_AT_EPOCH   = 36095
BSTAR          = .39824E-3
MEAN_MOTION_DOT = .20259E-3
MEAN_MOTION_DDOT = 0

CCSDS_OMM_VERS = 2.0
CREATION_DATE  = 
ORIGINATOR     = 

OBJECT_NAME    = SL-3 R/B
OBJECT_ID      = 1983-075B
CENTER_NAME    = EARTH
REF_FRAME      = TEME
TIME_SYSTEM    = UTC
MEAN_ELEMENT_THEORY = SGP/SGP4

EPOCH          = 2026-03-29T01:37:01.104960
MEAN_MOTION    = 15.38867268
ECCENTRICITY   = .002228
INCLINATION    = 97.6138
RA_OF_ASC_NODE = 93.3852
ARG_OF_PERICENTER = 155.6415
MEAN_ANOMALY   = 204.5888

EPHEMERIS_TYPE = 0
CLASSIFICATION_TYPE = U
NORAD_CAT_ID   = 14208
ELEMENT_SET_NO = 999
REV_AT_EPOCH   = 33313
BSTAR          = .33471E-3
MEAN_MOTION_DOT = .12896E-3
MEAN_MOTION_DDOT = 0

CCSDS_OMM_VERS = 2.0
CREATION_DATE  = 
ORIGINATOR     = 

OBJECT_NAME    = COSMOS 1536
OBJECT_ID      = 1984-013A
CENTER_NAME    = EARTH
REF_FRAME      = TEME
TIME_SYSTEM    = UTC
MEAN_ELEMENT_THEORY = SGP/SGP4

EPOCH          = 2026-03-29T02:09:26.159040
MEAN_MOTION    = 15.24082708
ECCENTRICITY   = .0013339
INCLINATION    = 82.5412
RA_OF_ASC_NODE = 88.5564
ARG_OF_PERICENTER = 206.7011
MEAN_ANOMALY   = 153.3541

EPHEMERIS_TYPE = 0
CLASSIFICATION_TYPE = U
NORAD_CAT_ID   = 14699
ELEMENT_SET_NO = 999
REV_AT_EPOCH   = 27557
BSTAR          = .32176E-3
MEAN_MOTION_DOT = .7862E-4
MEAN_MOTION_DDOT = 0

CCSDS_OMM_VERS = 2.0
CREATION_DATE  = 
ORIGINATOR     = 

OBJECT_NAME    = SL-14 R/B
OBJECT_ID      = 1984-027B
CENTER_NAME    = EARTH
REF_FRAME      = TEME
TIME_SYSTEM    = UTC
MEAN_ELEMENT_THEORY = SGP/SGP4

EPOCH          = 2026-03-29T02:04:07.267008
MEAN_MOTION    = 14.85996662
ECCENTRICITY   = .0016475
INCLINATION    = 82.5418
RA_OF_ASC_NODE = 226.8195
ARG_OF_PERICENTER = 269.1858
MEAN_ANOMALY   = 90.7471

EPHEMERIS_TYPE = 0
CLASSIFICATION_TYPE = U
NORAD_CAT_ID   = 14820
ELEMENT_SET_NO = 999
REV_AT_EPOCH   = 25051
BSTAR          = .65231E-4
MEAN_MOTION_DOT = .595E-5
MEAN_MOTION_DDOT = 0

CCSDS_OMM_VERS = 2.0
CREATION_DATE  = 
ORIGINATOR     = 

OBJECT_NAME    = SL-8 R/B
OBJECT_ID      = 1985-006B
CENTER_NAME    = EARTH
REF_FRAME      = TEME
TIME_SYSTEM    = UTC
MEAN_ELEMENT_THEORY = SGP/SGP4

EPOCH          = 2026-03-29T03:52:37.792128
MEAN_MOTION    = 14.37797051
ECCENTRICITY   = .0017661
INCLINATION    = 74.0452
RA_OF_ASC_NODE = 225.3159
ARG_OF_PERICENTER = 137.5023
MEAN_ANOMALY   = 34.3406

EPHEMERIS_TYPE = 0
CLASSIFICATION_TYPE = U
NORAD_CAT_ID   = 15483
ELEMENT_SET_NO = 999
REV_AT_EPOCH   = 15682
BSTAR          = .11689E-3
MEAN_MOTION_DOT = .327E-5
MEAN_MOTION_DDOT = 0

CCSDS_OMM_VERS = 2.0
CREATION_DATE  = 
ORIGINATOR     = 

OBJECT_NAME    = SL-12 R/B(2)
OBJECT_ID      = 1985-042D
CENTER_NAME    = EARTH
REF_FRAME      = TEME
TIME_SYSTEM    = UTC
MEAN_ELEMENT_THEORY = SGP/SGP4

EPOCH          = 2026-03-29T04:28:21.626688
MEAN_MOTION    = 14.21988013
ECCENTRICITY   = .0032838
INCLINATION    = 71.1087
RA_OF_ASC_NODE = 46.5348
ARG_OF_PERICENTER = 95.8339
MEAN_ANOMALY   = 358.3060

EPHEMERIS_TYPE = 0
CLASSIFICATION_TYPE = U
NORAD_CAT_ID   = 15772
ELEMENT_SET_NO = 999
REV_AT_EPOCH   = 11716
BSTAR          = .46785E-4
MEAN_MOTION_DOT = .57E-6
MEAN_MOTION_DDOT = 0

CCSDS_OMM_VERS = 2.0
CREATION_DATE  = 
ORIGINATOR     = 

OBJECT_NAME    = SL-14 R/B
OBJECT_ID      = 1985-069B
CENTER_NAME    = EARTH
REF_FRAME      = TEME
TIME_SYSTEM    = UTC
MEAN_ELEMENT_THEORY = SGP/SGP4

EPOCH          = 2026-03-29T04:47:34.562976
MEAN_MOTION    = 14.86454499
ECCENTRICITY   = .0020045
INCLINATION    = 82.5305
RA_OF_ASC_NODE = 6.5924
ARG_OF_PERICENTER = 124.9836
MEAN_ANOMALY   = 235.3266

EPHEMERIS_TYPE = 0
CLASSIFICATION_TYPE = U
NORAD_CAT_ID   = 15945
ELEMENT_SET_NO = 999
REV_AT_EPOCH   = 17573
BSTAR          = .66745E-4
MEAN_MOTION_DOT = .616E-5
MEAN_MOTION_DDOT = 0

CCSDS_OMM_VERS = 2.0
CREATION_DATE  = 
ORIGINATOR     = 

OBJECT_NAME    = SL-16 R/B
OBJECT_ID      = 1985-097B
CENTER_NAME    = EARTH
REF_FRAME      = TEME
TIME_SYSTEM    = UTC
MEAN_ELEMENT_THEORY = SGP/SGP4

EPOCH          = 2026-03-29T04:40:58.474272
MEAN_MOTION    = 14.16603638
ECCENTRICITY   = .0009446
INCLINATION    = 71.0007
RA_OF_ASC_NODE = 99.4876
ARG_OF_PERICENTER = 237.0267
MEAN_ANOMALY   = 193.6624

EPHEMERIS_TYPE = 0
CLASSIFICATION_TYPE = U
NORAD_CAT_ID   = 16182
ELEMENT_SET_NO = 999
REV_AT_EPOCH   = 8999
BSTAR          = -.14402E-4
MEAN_MOTION_DOT = -.77E-6
MEAN_MOTION_DDOT = 0

CCSDS_OMM_VERS = 2.0
CREATION_DATE  = 
ORIGINATOR     = 

OBJECT_NAME    = SL-14 R/B
OBJECT_ID      = 1986-006B
CENTER_NAME    = EARTH
REF_FRAME      = TEME
TIME_SYSTEM    = UTC
MEAN_ELEMENT_THEORY = SGP/SGP4

EPOCH          = 2026-03-28T21:39:41.672160
MEAN_MOTION    = 14.86845296
ECCENTRICITY   = .0075808
INCLINATION    = 82.5252
RA_OF_ASC_NODE = 241.6503
ARG_OF_PERICENTER = 208.0548
MEAN_ANOMALY   = 151.6575

EPHEMERIS_TYPE = 0
CLASSIFICATION_TYPE = U
NORAD_CAT_ID   = 16496
ELEMENT_SET_NO = 999
REV_AT_EPOCH   = 15206
BSTAR          = .10784E-3
MEAN_MOTION_DOT = .1039E-4
MEAN_MOTION_DDOT = 0

CCSDS_OMM_VERS = 2.0
CREATION_DATE  = 
ORIGINATOR     = 

OBJECT_NAME    = COSMOS 1743
OBJECT_ID      = 1986-034A
CENTER_NAME    = EARTH
REF_FRAME      = TEME
TIME_SYSTEM    = UTC
MEAN_ELEMENT_THEORY = SGP/SGP4

EPOCH          = 2026-03-29T03:37:01.255008
MEAN_MOTION    = 15.60157072
ECCENTRICITY   = .000443
INCLINATION    = 82.5300
RA_OF_ASC_NODE = 53.3800
ARG_OF_PERICENTER = 170.3258
MEAN_ANOMALY   = 189.8085

EPHEMERIS_TYPE = 0
CLASSIFICATION_TYPE = U
NORAD_CAT_ID   = 16719
ELEMENT_SET_NO = 999
REV_AT_EPOCH   = 18328
BSTAR          = .64009E-3
MEAN_MOTION_DOT = .52286E-3
MEAN_MOTION_DDOT = 0

